0 OPS 6582 (TRANSIT 5B-5)
1 00965U 64083D   13280.39366953  .00000037  00000-0  38173-4 0  6947
2 00965 089.9947 191.0907 0041694 146.3683 349.9297 13.56584277415584
0 OPS 6582 (TRANSIT 5B-5)
1 00965U 64083D   13282.52995608  .00000026  00000-0  22577-4 0  6959
2 00965 089.9947 191.0898 0041844 140.3776 342.6645 13.56584496415879
0 OPS 6582 (TRANSIT 5B-5)
1 00965U 64083D   13287.18159508  .00000056  00000-0  64380-4 0  6970
2 00965 089.9947 191.0879 0042111 127.3122 019.3594 13.56584357416504
0 OPS 6582 (TRANSIT 5B-5)
1 00965U 64083D   13289.44802043  .00000071  00000-0  85373-4 0  6983
2 00965 089.9944 191.0871 0042186 121.0013 287.5960 13.56584631416810
0 OPS 6582 (TRANSIT 5B-5)
1 00965U 64083D   13291.82090044  .00000068  00000-0  81083-4 0  6999
2 00965 089.9940 191.0863 0042230 114.4215 355.6844 13.56585056417133
0 OPS 6582 (TRANSIT 5B-5)
1 00965U 64083D   13294.19225965  .00000070  00000-0  85056-4 0  7004
2 00965 089.9938 191.0854 0042304 107.7940 056.4015 13.56585566417459
